[{"OBJECT_NAME":"STARLINK-32464","OBJECT_ID":"2024-224B","EPOCH":"2026-03-09T12:59:24.614304","MEAN_MOTION":15.27568956,"ECCENTRICITY":0.00019199,"INCLINATION":42.9933,"RA_OF_ASC_NODE":159.2559,"ARG_OF_PERICENTER":287.9756,"MEAN_ANOMALY":72.0887,"EPHEMERIS_TYPE":0,"CLASSIFICATION_TYPE":"U","NORAD_CAT_ID":62140,"ELEMENT_SET_NO":999,"REV_AT_EPOCH":7239,"BSTAR":0.0012977747,"MEAN_MOTION_DOT":0.00035611,"MEAN_MOTION_DDOT":0},{"OBJECT_NAME":"BANDWAGON-4 OBJECT M","OBJECT_ID":"2025-248M","EPOCH":"2026-03-09T00:50:26.830464","MEAN_MOTION":15.24295413,"ECCENTRICITY":0.00129441,"INCLINATION":45.4108,"RA_OF_ASC_NODE":294.9904,"ARG_OF_PERICENTER":207.5285,"MEAN_ANOMALY":152.4918,"EPHEMERIS_TYPE":0,"CLASSIFICATION_TYPE":"U","NORAD_CAT_ID":66304,"ELEMENT_SET_NO":999,"REV_AT_EPOCH":1803,"BSTAR":0.00095703617,"MEAN_MOTION_DOT":0.00023645,"MEAN_MOTION_DDOT":0}]
