STARLINK-32464          
1 62140U 24224B   26068.54125711  .00035611  00000+0  12978-2 0  9999
2 62140  42.9933 159.2559 0001919 287.9756  72.0887 15.27568956 72392
BANDWAGON-4 OBJECT M    
1 66304U 25248M   26068.03503276  .00023645  00000+0  95704-3 0  9995
2 66304  45.4108 294.9904 0012944 207.5285 152.4918 15.24295413 18037
